IRIDIUM 144             
1 43249U 18030A   25141.27105815  .00000062  00000+0  14931-4 0  9995
2 43249  86.3945  94.2581 0002418  86.8688 273.2784 14.34218094373964
IRIDIUM 149             
1 43250U 18030B   25141.13786428  .00000033  00000+0  47772-5 0  9995
2 43250  86.3944  94.2852 0002464  86.0302 274.1176 14.34217747373961
IRIDIUM 157             
1 43251U 18030C   25141.57550221  .00000072  00000+0  18501-4 0  9994
2 43251  86.3947  94.1469 0002084  82.1308 278.0124 14.34217064374003
IRIDIUM 140             
1 43252U 18030D   25141.80383653 -.00000009  00000+0 -10372-4 0  9994
2 43252  86.3949  94.0652 0002337  88.3236 271.8227 14.34217453374094
IRIDIUM 145             
1 43253U 18030E   25141.58184610  .00000029  00000+0  31246-5 0  9996
2 43253  86.3946  94.1308 0002644  85.1974 274.9523 14.34217614373996
IRIDIUM 146             
1 43254U 18030F   25141.91166116  .00000073  00000+0  19021-4 0  9990
2 43254  86.3946  94.0065 0002677  85.3366 274.8136 14.34217192374057
IRIDIUM 148             
1 43255U 18030G   25142.15902629  .00000218  00000+0  70742-4 0  9993
2 43255  86.3948  93.9402 0002365  81.1705 278.9759 14.34220798374139
IRIDIUM 142             
1 43256U 18030H   25141.56916128  .00000109  00000+0  31789-4 0  9994
2 43256  86.3944  94.0900 0002808  82.8750 277.2765 14.34217304374005
